{"type": "FeatureCollection", "features": [ {"type": "Feature", "properties": {"norad_id": 65304, "name": "DRAGON CRS-33", "group": "stations", "lat": -50.84221174002544, "lon": 27.086981161786625, "alt_km": 420.2858161567992, "timestamp": "2025-12-15T04:01:19.203686+00:00", "meta": {"OBJECT_NAME": "DRAGON CRS-33", "OBJECT_ID": "2025-186A", "EPOCH": "2025-12-14T05:13:44.174496", "MEAN_MOTION": 15.49586484, "ECCENTRICITY": 0.00032642, "INCLINATION": 51.6305, "RA_OF_ASC_NODE": 135.1599, "ARG_OF_PERICENTER": 246.9077, "MEAN_ANOMALY": 113.1568, "EPHEMERIS_TYPE": 0, "CLASSIFICATION_TYPE": "U", "NORAD_CAT_ID": 65304, "ELEMENT_SET_NO": 999, "REV_AT_EPOCH": 11, "BSTAR": 0.00022198491, "MEAN_MOTION_DOT": 0.00012052, "MEAN_MOTION_DDOT": 0}, "tle": {"line1": "1 65304U 25186A   25348.21787239  .00012052  00000+0  22198-3 0  9995", "line2": "2 65304  51.6305 135.1599 0003264 246.9077 113.1568 15.49586484   114"}}, "geometry": {"type": "Point", "coordinates": [27.086981161786625, -50.84221174002544]}}, {"type": "Feature", "properties": {"norad_id": 65586, "name": "PROGRESS-MS 32", "group": "stations", "lat": -50.84221191543866, "lon": 27.086982668470114, "alt_km": 420.2858161687991, "timestamp": "2025-12-15T04:01:19.203701+00:00", "meta": {"OBJECT_NAME": "PROGRESS-MS 32", "OBJECT_ID": "2025-204A", "EPOCH": "2025-12-14T05:13:44.174496", "MEAN_MOTION": 15.49586484, "ECCENTRICITY": 0.00032642, "INCLINATION": 51.6305, "RA_OF_ASC_NODE": 135.1599, "ARG_OF_PERICENTER": 246.9077, "MEAN_ANOMALY": 113.1568, "EPHEMERIS_TYPE": 0, "CLASSIFICATION_TYPE": "U", "NORAD_CAT_ID": 65586, "ELEMENT_SET_NO": 999, "REV_AT_EPOCH": 27, "BSTAR": 0.00022198491, "MEAN_MOTION_DOT": 0.00012052, "MEAN_MOTION_DDOT": 0}, "tle": {"line1": "1 65586U 25204A   25348.21787239  .00012052  00000+0  22198-3 0  9998", "line2": "2 65586  51.6305 135.1599 0003264 246.9077 113.1568 15.49586484   273"}}, "geometry": {"type": "Point", "coordinates": [27.086982668470114, -50.84221191543866]}}, {"type": "Feature", "properties": {"norad_id": 65616, "name": "CYGNUS NG-23", "group": "stations", "lat": -50.84221203238062, "lon": 27.08698367292404, "alt_km": 420.2858161768045, "timestamp": "2025-12-15T04:01:19.203711+00:00", "meta": {"OBJECT_NAME": "CYGNUS NG-23", "OBJECT_ID": "2025-208A", "EPOCH": "2025-12-14T05:13:44.174496", "MEAN_MOTION": 15.49586484, "ECCENTRICITY": 0.00032642, "INCLINATION": 51.6305, "RA_OF_ASC_NODE": 135.1599, "ARG_OF_PERICENTER": 246.9077, "MEAN_ANOMALY": 113.1568, "EPHEMERIS_TYPE": 0, "CLASSIFICATION_TYPE": "U", "NORAD_CAT_ID": 65616, "ELEMENT_SET_NO": 999, "REV_AT_EPOCH": 22, "BSTAR": 0.00022198491, "MEAN_MOTION_DOT": 0.00012052, "MEAN_MOTION_DDOT": 0}, "tle": {"line1": "1 65616U 25208A   25348.21787239  .00012052  00000+0  22198-3 0  9996", "line2": "2 65616  51.6305 135.1599 0003264 246.9077 113.1568 15.49586484   222"}}, "geometry": {"type": "Point", "coordinates": [27.08698367292404, -50.84221203238062]}}, {"type": "Feature", "properties": {"norad_id": 65729, "name": "DRAGONFLY", "group": "stations", "lat": 50.390291951969246, "lon": -163.42075716995953, "alt_km": 347.7469932946997, "timestamp": "2025-12-15T04:01:19.203722+00:00", "meta": {"OBJECT_NAME": "DRAGONFLY", "OBJECT_ID": "1998-067XH", "EPOCH": "2025-12-13T16:36:27.743328", "MEAN_MOTION": 15.72310549, "ECCENTRICITY": 0.00068171, "INCLINATION": 51.6241, "RA_OF_ASC_NODE": 130.8872, "ARG_OF_PERICENTER": 284.278, "MEAN_ANOMALY": 75.7461, "EPHEMERIS_TYPE": 0, "CLASSIFICATION_TYPE": "U", "NORAD_CAT_ID": 65729, "ELEMENT_SET_NO": 999, "REV_AT_EPOCH": 1331, "BSTAR": 0.0013020604, "MEAN_MOTION_DOT": 0.00179632, "MEAN_MOTION_DDOT": 0}, "tle": {"line1": "1 65729U 98067XH  25347.69198777  .00179632  00000+0  13021-2 0  9990", "line2": "2 65729  51.6241 130.8872 0006817 284.2780  75.7461 15.72310549 13317"}}, "geometry": {"type": "Point", "coordinates": [-163.42075716995953, 50.390291951969246]}}, {"type": "Feature", "properties": {"norad_id": 65731, "name": "1998-067XK", "group": "stations", "lat": 35.40223557512528, "lon": 159.18077952626587, "alt_km": 367.7709299572425, "timestamp": "2025-12-15T04:01:19.203732+00:00", "meta": {"OBJECT_NAME": "1998-067XK", "OBJECT_ID": "1998-067XK", "EPOCH": "2025-12-13T16:35:48.207552", "MEAN_MOTION": 15.65971562, "ECCENTRICITY": 0.0005022, "INCLINATION": 51.6277, "RA_OF_ASC_NODE": 132.4028, "ARG_OF_PERICENTER": 252.6654, "MEAN_ANOMALY": 107.3793, "EPHEMERIS_TYPE": 0, "CLASSIFICATION_TYPE": "U", "NORAD_CAT_ID": 65731, "ELEMENT_SET_NO": 999, "REV_AT_EPOCH": 1329, "BSTAR": 0.0009945398, "MEAN_MOTION_DOT": 0.00104411, "MEAN_MOTION_DDOT": 0}, "tle": {"line1": "1 65731U 98067XK  25347.69153018  .00104411  00000+0  99454-3 0  9990", "line2": "2 65731  51.6277 132.4028 0005022 252.6654 107.3793 15.65971562 13293"}}, "geometry": {"type": "Point", "coordinates": [159.18077952626587, 35.40223557512528]}}, {"type": "Feature", "properties": {"norad_id": 65732, "name": "RSP-03", "group": "stations", "lat": 34.35998124977388, "lon": 156.95417407977166, "alt_km": 359.3453720430334, "timestamp": "2025-12-15T04:01:19.203745+00:00", "meta": {"OBJECT_NAME": "RSP-03", "OBJECT_ID": "1998-067XL", "EPOCH": "2025-12-13T16:40:16.814784", "MEAN_MOTION": 15.68925685, "ECCENTRICITY": 0.00057642, "INCLINATION": 51.6251, "RA_OF_ASC_NODE": 131.6633, "ARG_OF_PERICENTER": 257.9098, "MEAN_ANOMALY": 102.1253, "EPHEMERIS_TYPE": 0, "CLASSIFICATION_TYPE": "U", "NORAD_CAT_ID": 65732, "ELEMENT_SET_NO": 999, "REV_AT_EPOCH": 1331, "BSTAR": 0.0011602018, "MEAN_MOTION_DOT": 0.00138092, "MEAN_MOTION_DDOT": 0}, "tle": {"line1": "1 65732U 98067XL  25347.69463906  .00138092  00000+0  11602-2 0  9991", "line2": "2 65732  51.6251 131.6633 0005764 257.9098 102.1253 15.68925685 13317"}}, "geometry": {"type": "Point", "coordinates": [156.95417407977166, 34.35998124977388]}}, {"type": "Feature", "properties": {"norad_id": 65733, "name": "GHS-01", "group": "stations", "lat": 15.648554833299777, "lon": 135.52432665824662, "alt_km": 340.0867474076076, "timestamp": "2025-12-15T04:01:19.203756+00:00", "meta": {"OBJECT_NAME": "GHS-01", "OBJECT_ID": "1998-067XM", "EPOCH": "2025-12-13T15:24:20.714688", "MEAN_MOTION": 15.75321114, "ECCENTRICITY": 0.00073966, "INCLINATION": 51.6271, "RA_OF_ASC_NODE": 130.5592, "ARG_OF_PERICENTER": 286.1274, "MEAN_ANOMALY": 73.8911, "EPHEMERIS_TYPE": 0, "CLASSIFICATION_TYPE": "U", "NORAD_CAT_ID": 65733, "ELEMENT_SET_NO": 999, "REV_AT_EPOCH": 1332, "BSTAR": 0.0014639187, "MEAN_MOTION_DOT": 0.0023151, "MEAN_MOTION_DDOT": 0}, "tle": {"line1": "1 65733U 98067XM  25347.64190642  .00231510  00000+0  14639-2 0  9993", "line2": "2 65733  51.6271 130.5592 0007396 286.1274  73.8911 15.75321114 13326"}}, "geometry": {"type": "Point", "coordinates": [135.52432665824662, 15.648554833299777]}}, {"type": "Feature", "properties": {"norad_id": 65941, "name": "YOTSUBA-KULOVER", "group": "stations", "lat": 46.13518599833343, "lon": -107.7562474664682, "alt_km": 382.6345131485605, "timestamp": "2025-12-15T04:01:19.203766+00:00", "meta": {"OBJECT_NAME": "YOTSUBA-KULOVER", "OBJECT_ID": "1998-067XN", "EPOCH": "2025-12-14T02:56:12.397344", "MEAN_MOTION": 15.59689626, "ECCENTRICITY": 0.00013798, "INCLINATION": 51.6286, "RA_OF_ASC_NODE": 133.0282, "ARG_OF_PERICENTER": 267.2851, "MEAN_ANOMALY": 92.7984, "EPHEMERIS_TYPE": 0, "CLASSIFICATION_TYPE": "U", "NORAD_CAT_ID": 65941, "ELEMENT_SET_NO": 999, "REV_AT_EPOCH": 1007, "BSTAR": 0.00090188305, "MEAN_MOTION_DOT": 0.00073626, "MEAN_MOTION_DDOT": 0}, "tle": {"line1": "1 65941U 98067XN  25348.12236571  .00073626  00000+0  90188-3 0  9996", "line2": "2 65941  51.6286 133.0282 0001379 267.2851  92.7984 15.59689626 10079"}}, "geometry": {"type": "Point", "coordinates": [-107.7562474664682, 46.13518599833343]}}, {"type": "Feature", "properties": {"norad_id": 65942, "name": "BOTAN", "group": "stations", "lat": 46.36795721523254, "lon": -109.19863972092055, "alt_km": 372.72728898628975, "timestamp": "2025-12-15T04:01:19.203777+00:00", "meta": {"OBJECT_NAME": "BOTAN", "OBJECT_ID": "1998-067XP", "EPOCH": "2025-12-13T19:19:30.936288", "MEAN_MOTION": 15.63168137, "ECCENTRICITY": 0.00029855, "INCLINATION": 51.6273, "RA_OF_ASC_NODE": 133.9097, "ARG_OF_PERICENTER": 245.5023, "MEAN_ANOMALY": 114.566, "EPHEMERIS_TYPE": 0, "CLASSIFICATION_TYPE": "U", "NORAD_CAT_ID": 65942, "ELEMENT_SET_NO": 999, "REV_AT_EPOCH": 1003, "BSTAR": 0.0012359991, "MEAN_MOTION_DOT": 0.00116317, "MEAN_MOTION_DDOT": 0}, "tle": {"line1": "1 65942U 98067XP  25347.80521917  .00116317  00000+0  12360-2 0  9992", "line2": "2 65942  51.6273 133.9097 0002985 245.5023 114.5660 15.63168137 10037"}}, "geometry": {"type": "Point", "coordinates": [-109.19863972092055, 46.36795721523254]}}, {"type": "Feature", "properties": {"norad_id": 65943, "name": "E-KAGAKU-1", "group": "stations", "lat": 46.36079580975698, "lon": -108.41735250010446, "alt_km": 382.15705858640104, "timestamp": "2025-12-15T04:01:19.203790+00:00", "meta": {"OBJECT_NAME": "E-KAGAKU-1", "OBJECT_ID": "1998-067XQ", "EPOCH": "2025-12-13T16:10:25.766976", "MEAN_MOTION": 15.59600277, "ECCENTRICITY": 0.0001883, "INCLINATION": 51.6291, "RA_OF_ASC_NODE": 135.2869, "ARG_OF_PERICENTER": 210.5697, "MEAN_ANOMALY": 149.5187, "EPHEMERIS_TYPE": 0, "CLASSIFICATION_TYPE": "U", "NORAD_CAT_ID": 65943, "ELEMENT_SET_NO": 999, "REV_AT_EPOCH": 1000, "BSTAR": 0.00085555158, "MEAN_MOTION_DOT": 0.00069544, "MEAN_MOTION_DDOT": 0}, "tle": {"line1": "1 65943U 98067XQ  25347.67390934  .00069544  00000+0  85555-3 0  9997", "line2": "2 65943  51.6291 135.2869 0001883 210.5697 149.5187 15.59600277 10005"}}, "geometry": {"type": "Point", "coordinates": [-108.41735250010446, 46.36079580975698]}}]}